OBJECT_NAME,OBJECT_ID,EPOCH,MEAN_MOTION,ECCENTRICITY,INCLINATION,RA_OF_ASC_NODE,ARG_OF_PERICENTER,MEAN_ANOMALY,EPHEMERIS_TYPE,CLASSIFICATION_TYPE,NORAD_CAT_ID,ELEMENT_SET_NO,REV_AT_EPOCH,BSTAR,MEAN_MOTION_DOT,MEAN_MOTION_DDOT
ASTRO-H (HITOMI),2016-012A,2022-02-24T16:22:43.425984,14.99096762,.0012122,31.0059,55.3605,52.0689,308.1040,0,U,41337,999,33018,.659E-4,.905E-5,0
HXMT (HUIYAN),2017-034A,2022-02-25T08:41:47.903136,15.09751261,.0009616,43.0164,244.4633,297.3199,127.1793,0,U,42758,999,25923,.10309E-3,.1473E-4,0
CZ-2C R/B,2018-054D,2022-02-25T01:48:35.937216,15.12336926,.0080166,35.1543,330.8943,170.1535,190.0769,0,U,43521,999,20265,.10704E-3,.2012E-4,0
AEOLUS,2018-066A,2022-02-25T11:57:28.310112,15.87206592,.0003872,96.7124,64.2905,99.5335,260.6376,0,U,43600,999,20337,.32802E-3,.8565E-3,0
SAOCOM 1A,2018-076A,2022-02-25T09:50:43.916064,14.82144529,.0001555,97.8864,244.7035,84.4997,275.6494,0,U,43641,999,18313,-.50256E-4,-.452E-5,0
SAOCOM 1B,2020-059A,2022-02-25T12:12:47.990592,14.82158261,.0001381,97.8863,243.8700,78.9368,281.2005,0,U,46265,999,8054,.27679E-4,.168E-5,0
SL-4 R/B,2021-008B,2022-02-25T15:52:39.147744,16.16718997,.0070942,67.1073,328.3527,78.6684,282.2471,0,U,47547,999,5958,.58794E-3,.1447172E-1,.59135E-5
TIANHE,2021-035A,2022-02-25T13:16:31.556064,15.62085468,.0005398,41.4688,179.1332,7.5528,97.4136,0,U,48274,999,4731,.16895E-3,.14921E-3,0
