ASTRO-H (HITOMI)        
1 41337U 16012A   22055.68244706  .00000905  00000+0  65900-4 0  9996
2 41337  31.0059  55.3605 0012122  52.0689 308.1040 14.99096762330184
HXMT (HUIYAN)           
1 42758U 17034A   22056.36235999  .00001473  00000+0  10309-3 0  9992
2 42758  43.0164 244.4633 0009616 297.3199 127.1793 15.09751261259232
CZ-2C R/B               
1 43521U 18054D   22056.07541594  .00002012  00000+0  10704-3 0  9992
2 43521  35.1543 330.8943 0080166 170.1535 190.0769 15.12336926202656
AEOLUS                  
1 43600U 18066A   22056.49824433  .00085650  00000+0  32802-3 0  9997
2 43600  96.7124  64.2905 0003872  99.5335 260.6376 15.87206592203374
SAOCOM 1A               
1 43641U 18076A   22056.41023051 -.00000452  00000+0 -50256-4 0  9995
2 43641  97.8864 244.7035 0001555  84.4997 275.6494 14.82144529183137
SAOCOM 1B               
1 46265U 20059A   22056.50888878  .00000168  00000+0  27679-4 0  9995
2 46265  97.8863 243.8700 0001381  78.9368 281.2005 14.82158261 80547
SL-4 R/B                
1 47547U 21008B   22056.66156421  .01447172  59135-5  58794-3 0  9994
2 47547  67.1073 328.3527 0070942  78.6684 282.2471 16.16718997 59582
TIANHE                  
1 48274U 21035A   22056.55314301  .00014921  00000+0  16895-3 0  9991
2 48274  41.4688 179.1332 0005398   7.5528  97.4136 15.62085468 47316
